{
    "links": {
        "self": "http://www.neowsapp.com/rest/v1/neo/3772762?api_key=iIulBulltgU6a56xZRHN4H3l9WmuAYTsLGpBGhQ2"
    },
    "id": "3772762",
    "neo_reference_id": "3772762",
    "name": "(2017 FY90)",
    "designation": "2017 FY90",
    "nasa_jpl_url": "http://ssd.jpl.nasa.gov/sbdb.cgi?sstr=3772762",
    "absolute_magnitude_h": 24.3,
    "estimated_diameter": {
        "kilometers": {
            "estimated_diameter_min": 0.0366906138,
            "estimated_diameter_max": 0.0820427065
        },
        "meters": {
            "estimated_diameter_min": 36.6906137531,
            "estimated_diameter_max": 82.0427064882
        },
        "miles": {
            "estimated_diameter_min": 0.0227984834,
            "estimated_diameter_max": 0.0509789586
        },
        "feet": {
            "estimated_diameter_min": 120.3760332259,
            "estimated_diameter_max": 269.1689931548
        }
    },
    "is_potentially_hazardous_asteroid": false,
    "close_approach_data": [
        {
            "close_approach_date": "2007-04-16",
            "close_approach_date_full": "2007-Apr-16 14:07",
            "epoch_date_close_approach": 1176732420000,
            "relative_velocity": {
                "kilometers_per_second": "19.0353984859",
                "kilometers_per_hour": "68527.4345491579",
                "miles_per_hour": "42580.2828730587"
            },
            "miss_distance": {
                "astronomical": "0.4306806156",
                "lunar": "167.5347594684",
                "kilometers": "64428902.744048772",
                "miles": "40034263.7516741736"
            },
            "orbiting_body": "Earth"
        },
        {
            "close_approach_date": "2012-04-03",
            "close_approach_date_full": "2012-Apr-03 17:58",
            "epoch_date_close_approach": 1333475880000,
            "relative_velocity": {
                "kilometers_per_second": "13.3707049512",
                "kilometers_per_hour": "48134.5378242638",
                "miles_per_hour": "29908.9299053044"
            },
            "miss_distance": {
                "astronomical": "0.2249480875",
                "lunar": "87.5048060375",
                "kilometers": "33651754.750573625",
                "miles": "20910230.781721025"
            },
            "orbiting_body": "Earth"
        },
        {
            "close_approach_date": "2017-03-21",
            "close_approach_date_full": "2017-Mar-21 02:33",
            "epoch_date_close_approach": 1490063580000,
            "relative_velocity": {
                "kilometers_per_second": "8.8343270365",
                "kilometers_per_hour": "31803.5773314339",
                "miles_per_hour": "19761.5061479679"
            },
            "miss_distance": {
                "astronomical": "0.0812396532",
                "lunar": "31.6022250948",
                "kilometers": "12153279.078258684",
                "miles": "7551697.4423664792"
            },
            "orbiting_body": "Earth"
        },
        {
            "close_approach_date": "2027-01-20",
            "close_approach_date_full": "2027-Jan-20 16:11",
            "epoch_date_close_approach": 1800461460000,
            "relative_velocity": {
                "kilometers_per_second": "13.9666378916",
                "kilometers_per_hour": "50279.8964099026",
                "miles_per_hour": "31241.9722998086"
            },
            "miss_distance": {
                "astronomical": "0.3650346277",
                "lunar": "141.9984701753",
                "kilometers": "54608402.780162999",
                "miles": "33932088.0357634262"
            },
            "orbiting_body": "Earth"
        },
        {
            "close_approach_date": "2156-04-15",
            "close_approach_date_full": "2156-Apr-15 10:57",
            "epoch_date_close_approach": 5878695420000,
            "relative_velocity": {
                "kilometers_per_second": "17.6682206271",
                "kilometers_per_hour": "63605.5942575784",
                "miles_per_hour": "39522.0427207714"
            },
            "miss_distance": {
                "astronomical": "0.3832215361",
                "lunar": "149.0731775429",
                "kilometers": "57329125.538688107",
                "miles": "35622666.7647335966"
            },
            "orbiting_body": "Earth"
        }
    ],
    "orbital_data": {
        "orbit_id": "9",
        "orbit_determination_date": "2018-02-10 07:08:50",
        "first_observation_date": "2017-03-25",
        "last_observation_date": "2017-04-20",
        "data_arc_in_days": 26,
        "observations_used": 55,
        "orbit_uncertainty": "7",
        "minimum_orbit_intersection": ".0807322",
        "jupiter_tisserand_invariant": "3.881",
        "epoch_osculation": "2459000.5",
        "eccentricity": ".4388746628954104",
        "semi_major_axis": "1.835265801384258",
        "inclination": "11.48828132832843",
        "ascending_node_longitude": "11.80717030400821",
        "orbital_period": "908.1276204683668",
        "perihelion_distance": "1.029814141478267",
        "perihelion_argument": "141.1396361987831",
        "aphelion_distance": "2.64071746129025",
        "perihelion_time": "2458717.325515493461",
        "mean_anomaly": "112.2560443319375",
        "mean_motion": ".3964200536201399",
        "equinox": "J2000",
        "orbit_class": {
            "orbit_class_type": "AMO",
            "orbit_class_description": "Near-Earth asteroid orbits similar to that of 1221 Amor",
            "orbit_class_range": "1.017 AU < q (perihelion) < 1.3 AU"
        }
    },
    "is_sentry_object": false
}